[
	{ "NameJa": "稚内", "NameEn": "Wakkanai", "Id": 2127515, "Longitude": 141.67, "Latitude": 45.41, "Area": "北海道", "PowerCompanyName": "北海道電力" },
	{ "NameJa": "旭川", "NameEn": "Asahikawa", "Id": 2130629, "Longitude": 142.37, "Latitude": 43.77, "Area": "北海道", "PowerCompanyName": "北海道電力" },
	{ "NameJa": "留萌", "NameEn": "Rumoi", "Id": 2128382, "Longitude": 141.64, "Latitude": 43.93, "Area": "北海道", "PowerCompanyName": "北海道電力" },
	{ "NameJa": "札幌", "NameEn": "Sapporo-shi", "Id": 2128295, "Longitude": 141.35, "Latitude": 43.06, "Area": "北海道", "PowerCompanyName": "北海道電力" },
	{ "NameJa": "岩見沢", "NameEn": "Iwamizawa", "Id": 2129870, "Longitude": 141.76, "Latitude": 43.2, "Area": "北海道", "PowerCompanyName": "北海道電力" },
	{ "NameJa": "倶知安", "NameEn": "Kutchan", "Id": 2129365, "Longitude": 140.74, "Latitude": 42.9, "Area": "北海道", "PowerCompanyName": "北海道電力" },
	{ "NameJa": "網走", "NameEn": "Abashiri", "Id": 2130741, "Longitude": 144.27, "Latitude": 44.02, "Area": "北海道", "PowerCompanyName": "北海道電力" },
	{ "NameJa": "北見", "NameEn": "Kitami", "Id": 2129537, "Longitude": 143.89, "Latitude": 43.8, "Area": "北海道", "PowerCompanyName": "北海道電力" },
	{ "NameJa": "紋別", "NameEn": "Monbetsu", "Id": 2129163, "Longitude": 143.35, "Latitude": 44.35, "Area": "北海道", "PowerCompanyName": "北海道電力" },
	{ "NameJa": "根室", "NameEn": "Nemuro", "Id": 2128975, "Longitude": 145.57, "Latitude": 43.32, "Area": "北海道", "PowerCompanyName": "北海道電力" },
	{ "NameJa": "釧路", "NameEn": "Kushiro", "Id": 2129376, "Longitude": 144.37, "Latitude": 42.97, "Area": "北海道", "PowerCompanyName": "北海道電力" },
	{ "NameJa": "帯広", "NameEn": "Obihiro", "Id": 2128815, "Longitude": 143.2, "Latitude": 42.92, "Area": "北海道", "PowerCompanyName": "北海道電力" },
	{ "NameJa": "室蘭", "NameEn": "Muroran", "Id": 2129101, "Longitude": 140.99, "Latitude": 42.32, "Area": "北海道", "PowerCompanyName": "北海道電力" },
	{ "NameJa": "静内", "NameEn": "Shizunai", "Id": 2128025, "Longitude": 142.37, "Latitude": 42.33, "Area": "北海道", "PowerCompanyName": "北海道電力" },
	{ "NameJa": "函館", "NameEn": "Hakodate", "Id": 2130188, "Longitude": 140.74, "Latitude": 41.78, "Area": "北海道", "PowerCompanyName": "北海道電力" },
	{ "NameJa": "せたな", "NameEn": "Setana", "Id": 2038715, "Longitude": 139.85, "Latitude": 42.45, "Area": "北海道", "PowerCompanyName": "北海道電力" },
	{ "NameJa": "青森", "NameEn": "Aomori-shi", "Id": 2130658, "Longitude": 140.74, "Latitude": 40.82, "Area": "東北", "PowerCompanyName": "東北電力" },
	{ "NameJa": "むつ", "NameEn": "Mutsu", "Id": 2127878, "Longitude": 141.22, "Latitude": 41.29, "Area": "東北", "PowerCompanyName": "東北電力" },
	{ "NameJa": "八戸", "NameEn": "Hachinohe", "Id": 2130203, "Longitude": 141.5, "Latitude": 40.5, "Area": "東北", "PowerCompanyName": "東北電力" },
	{ "NameJa": "秋田", "NameEn": "Akita", "Id": 2113126, "Longitude": 140.12, "Latitude": 39.72, "Area": "東北", "PowerCompanyName": "東北電力" },
	{ "NameJa": "横手", "NameEn": "Yokote", "Id": 2110506, "Longitude": 140.57, "Latitude": 39.3, "Area": "東北", "PowerCompanyName": "東北電力" },
	{ "NameJa": "盛岡", "NameEn": "Morioka-shi", "Id": 2111834, "Longitude": 141.15, "Latitude": 39.7, "Area": "東北", "PowerCompanyName": "東北電力" },
	{ "NameJa": "宮古", "NameEn": "Miyako", "Id": 2111884, "Longitude": 141.95, "Latitude": 39.64, "Area": "東北", "PowerCompanyName": "東北電力" },
	{ "NameJa": "大船渡", "NameEn": "Ofunato", "Id": 2111530, "Longitude": 141.72, "Latitude": 39.07, "Area": "東北", "PowerCompanyName": "東北電力" },
	{ "NameJa": "仙台", "NameEn": "Sendai-shi", "Id": 2111149, "Longitude": 140.87, "Latitude": 38.27, "Area": "東北", "PowerCompanyName": "東北電力" },
	{ "NameJa": "白石", "NameEn": "Shiroishi", "Id": 2111016, "Longitude": 140.62, "Latitude": 38, "Area": "東北", "PowerCompanyName": "東北電力" },
	{ "NameJa": "山形", "NameEn": "Yamagata-shi", "Id": 2110556, "Longitude": 140.36, "Latitude": 38.24, "Area": "東北", "PowerCompanyName": "東北電力" },
	{ "NameJa": "米沢", "NameEn": "Yonezawa", "Id": 2110498, "Longitude": 140.12, "Latitude": 37.92, "Area": "東北", "PowerCompanyName": "東北電力" },
	{ "NameJa": "酒田", "NameEn": "Sakata", "Id": 1853140, "Longitude": 139.85, "Latitude": 38.92, "Area": "東北", "PowerCompanyName": "東北電力" },
	{ "NameJa": "新庄", "NameEn": "Shinjo", "Id": 2111065, "Longitude": 140.3, "Latitude": 38.76, "Area": "東北", "PowerCompanyName": "東北電力" },
	{ "NameJa": "福島", "NameEn": "Fukushima-shi", "Id": 2112923, "Longitude": 140.47, "Latitude": 37.75, "Area": "東北", "PowerCompanyName": "東北電力" },
	{ "NameJa": "いわき", "NameEn": "Iwaki", "Id": 2112539, "Longitude": 140.88, "Latitude": 37.05, "Area": "東北", "PowerCompanyName": "東北電力" },
	{ "NameJa": "喜多方", "NameEn": "Kitakata", "Id": 1859319, "Longitude": 139.87, "Latitude": 37.65, "Area": "東北", "PowerCompanyName": "東北電力" },
	{ "NameJa": "東京", "NameEn": "Tokyo", "Id": 1850147, "Longitude": 139.69, "Latitude": 35.69, "Area": "関東・甲信", "PowerCompanyName": "東京電力" },
	{ "NameJa": "大島", "NameEn": "Oshima", "Id": 1854431, "Longitude": 139.38, "Latitude": 34.78, "Area": "関東・甲信", "PowerCompanyName": "東京電力" },
	{ "NameJa": "横浜", "NameEn": "Yokohama-shi", "Id": 1848354, "Longitude": 139.64, "Latitude": 35.45, "Area": "関東・甲信", "PowerCompanyName": "東京電力" },
	{ "NameJa": "小田原", "NameEn": "Odawara", "Id": 1854747, "Longitude": 139.16, "Latitude": 35.26, "Area": "関東・甲信", "PowerCompanyName": "東京電力" },
	{ "NameJa": "さいたま", "NameEn": "Saitama", "Id": 6940394, "Longitude": 139.66, "Latitude": 35.91, "Area": "関東・甲信", "PowerCompanyName": "東京電力" },
	{ "NameJa": "熊谷", "NameEn": "Kumagaya", "Id": 1858428, "Longitude": 139.38, "Latitude": 36.13, "Area": "関東・甲信", "PowerCompanyName": "東京電力" },
	{ "NameJa": "秩父", "NameEn": "Chichibu", "Id": 1864637, "Longitude": 139.08, "Latitude": 35.99, "Area": "関東・甲信", "PowerCompanyName": "東京電力" },
	{ "NameJa": "千葉", "NameEn": "Chiba-shi", "Id": 2113015, "Longitude": 140.12, "Latitude": 35.6, "Area": "関東・甲信", "PowerCompanyName": "東京電力" },
	{ "NameJa": "銚子", "NameEn": "Choshi-Shi", "Id": 2112802, "Longitude": 140.83, "Latitude": 35.73, "Area": "関東・甲信", "PowerCompanyName": "東京電力" },
	{ "NameJa": "館山", "NameEn": "Tateyama", "Id": 1850523, "Longitude": 139.87, "Latitude": 34.98, "Area": "関東・甲信", "PowerCompanyName": "東京電力" },
	{ "NameJa": "水戸", "NameEn": "Mito-shi", "Id": 2111901, "Longitude": 140.45, "Latitude": 36.34, "Area": "関東・甲信", "PowerCompanyName": "東京電力" },
	{ "NameJa": "土浦", "NameEn": "Tsuchiura-Shi", "Id": 2111749, "Longitude": 140.17, "Latitude": 36.05, "Area": "関東・甲信", "PowerCompanyName": "東京電力" },
	{ "NameJa": "宇都宮", "NameEn": "Utsunomiya-shi", "Id": 1849053, "Longitude": 139.88, "Latitude": 36.57, "Area": "関東・甲信", "PowerCompanyName": "東京電力" },
	{ "NameJa": "大田原", "NameEn": "Otawara", "Id": 2111325, "Longitude": 140.03, "Latitude": 36.87, "Area": "関東・甲信", "PowerCompanyName": "東京電力" },
	{ "NameJa": "前橋", "NameEn": "Maebashi-shi", "Id": 1857843, "Longitude": 139.06, "Latitude": 36.39, "Area": "関東・甲信", "PowerCompanyName": "東京電力" },
	{ "NameJa": "沼田", "NameEn": "Numata", "Id": 1854905, "Longitude": 139.05, "Latitude": 36.63, "Area": "関東・甲信", "PowerCompanyName": "東京電力" },
	{ "NameJa": "甲府", "NameEn": "Kofu-shi", "Id": 1859100, "Longitude": 138.57, "Latitude": 35.66, "Area": "関東・甲信", "PowerCompanyName": "東京電力" },
	{ "NameJa": "河口湖", "NameEn": "Fujikawaguchiko", "Id": 7281819, "Longitude": 138.69, "Latitude": 35.49, "Area": "関東・甲信", "PowerCompanyName": "東京電力" },
	{ "NameJa": "長野", "NameEn": "Nagano-shi", "Id": 1856215, "Longitude": 138.18, "Latitude": 36.65, "Area": "関東・甲信", "PowerCompanyName": "中部電力" },
	{ "NameJa": "松本", "NameEn": "Matsumoto", "Id": 1857519, "Longitude": 137.97, "Latitude": 36.23, "Area": "関東・甲信", "PowerCompanyName": "中部電力" },
	{ "NameJa": "飯田", "NameEn": "Iida", "Id": 1861864, "Longitude": 137.82, "Latitude": 35.52, "Area": "関東・甲信", "PowerCompanyName": "中部電力" },
	{ "NameJa": "富山", "NameEn": "Toyama-shi", "Id": 1849876, "Longitude": 137.21, "Latitude": 36.7, "Area": "北陸", "PowerCompanyName": "北陸電力" },
	{ "NameJa": "新湊", "NameEn": "Shimminato", "Id": 1852385, "Longitude": 137.07, "Latitude": 36.78, "Area": "北陸", "PowerCompanyName": "北陸電力" },
	{ "NameJa": "金沢", "NameEn": "Kanazawa-shi", "Id": 1860243, "Longitude": 136.63, "Latitude": 36.59, "Area": "北陸", "PowerCompanyName": "北陸電力" },
	{ "NameJa": "輪島", "NameEn": "Wajima", "Id": 1848976, "Longitude": 136.9, "Latitude": 37.4, "Area": "北陸", "PowerCompanyName": "北陸電力" },
	{ "NameJa": "福井", "NameEn": "Fukui-shi", "Id": 1863985, "Longitude": 136.22, "Latitude": 36.06, "Area": "北陸", "PowerCompanyName": "北陸電力" },
	{ "NameJa": "敦賀", "NameEn": "Tsuruga", "Id": 1849592, "Longitude": 136.06, "Latitude": 35.65, "Area": "北陸", "PowerCompanyName": "北陸電力" },
	{ "NameJa": "新潟", "NameEn": "Niigata-shi", "Id": 1855431, "Longitude": 139.02, "Latitude": 37.9, "Area": "北陸", "PowerCompanyName": "東北電力" },
	{ "NameJa": "長岡", "NameEn": "Nagaoka", "Id": 1856199, "Longitude": 138.85, "Latitude": 37.45, "Area": "北陸", "PowerCompanyName": "東北電力" },
	{ "NameJa": "上越", "NameEn": "Joetsu", "Id": 6825489, "Longitude": 138.24, "Latitude": 37.15, "Area": "北陸", "PowerCompanyName": "東北電力" },
	{ "NameJa": "両津", "NameEn": "Ryotsu", "Id": 1853371, "Longitude": 138.43, "Latitude": 38.08, "Area": "北陸", "PowerCompanyName": "東北電力" },
	{ "NameJa": "静岡", "NameEn": "Shizuoka-shi", "Id": 1851717, "Longitude": 138.38, "Latitude": 34.98, "Area": "東海", "PowerCompanyName": "中部電力" },
	{ "NameJa": "熱海", "NameEn": "Atami", "Id": 1864945, "Longitude": 139.07, "Latitude": 35.09, "Area": "東海", "PowerCompanyName": "東京電力" },
	{ "NameJa": "三島", "NameEn": "Mishima", "Id": 1856977, "Longitude": 138.92, "Latitude": 35.12, "Area": "東海", "PowerCompanyName": "東京電力" },
	{ "NameJa": "浜松", "NameEn": "Hamamatsu", "Id": 1863289, "Longitude": 137.73, "Latitude": 34.7, "Area": "東海", "PowerCompanyName": "中部電力" },
	{ "NameJa": "名古屋", "NameEn": "Nagoya-shi", "Id": 1856057, "Longitude": 136.91, "Latitude": 35.18, "Area": "東海", "PowerCompanyName": "中部電力" },
	{ "NameJa": "豊橋", "NameEn": "Toyohashi", "Id": 1849846, "Longitude": 137.38, "Latitude": 34.77, "Area": "東海", "PowerCompanyName": "中部電力" },
	{ "NameJa": "岐阜", "NameEn": "Gifu-shi", "Id": 1863641, "Longitude": 136.76, "Latitude": 35.42, "Area": "東海", "PowerCompanyName": "中部電力" },
	{ "NameJa": "高山", "NameEn": "Takayama", "Id": 1850892, "Longitude": 137.25, "Latitude": 36.13, "Area": "東海", "PowerCompanyName": "中部電力" },
	{ "NameJa": "津", "NameEn": "Tsu-shi", "Id": 1849796, "Longitude": 136.51, "Latitude": 34.73, "Area": "東海", "PowerCompanyName": "中部電力" },
	{ "NameJa": "尾鷲", "NameEn": "Owase", "Id": 1853514, "Longitude": 136.2, "Latitude": 34.07, "Area": "東海", "PowerCompanyName": "中部電力" },
	{ "NameJa": "大阪", "NameEn": "Osaka-shi", "Id": 1853909, "Longitude": 135.5, "Latitude": 34.69, "Area": "近畿", "PowerCompanyName": "関西電力" },
	{ "NameJa": "神戸", "NameEn": "Kobe-shi", "Id": 1859171, "Longitude": 135.18, "Latitude": 34.69, "Area": "近畿", "PowerCompanyName": "関西電力" },
	{ "NameJa": "豊岡", "NameEn": "Toyooka", "Id": 1849831, "Longitude": 134.83, "Latitude": 35.53, "Area": "近畿", "PowerCompanyName": "関西電力" },
	{ "NameJa": "京都", "NameEn": "Kyoto", "Id": 1857910, "Longitude": 135.75, "Latitude": 35.02, "Area": "近畿", "PowerCompanyName": "関西電力" },
	{ "NameJa": "舞鶴", "NameEn": "Maizuru", "Id": 1857766, "Longitude": 135.33, "Latitude": 35.45, "Area": "近畿", "PowerCompanyName": "関西電力" },
	{ "NameJa": "大津", "NameEn": "Otsu-shi", "Id": 1853574, "Longitude": 135.87, "Latitude": 35, "Area": "近畿", "PowerCompanyName": "関西電力" },
	{ "NameJa": "彦根", "NameEn": "Hikone", "Id": 1862636, "Longitude": 136.25, "Latitude": 35.25, "Area": "近畿", "PowerCompanyName": "関西電力" },
	{ "NameJa": "奈良", "NameEn": "Nara-shi", "Id": 1855612, "Longitude": 135.8, "Latitude": 34.69, "Area": "近畿", "PowerCompanyName": "関西電力" },
	{ "NameJa": "和歌山", "NameEn": "Wakayama-shi", "Id": 1926004, "Longitude": 135.17, "Latitude": 34.23, "Area": "近畿", "PowerCompanyName": "関西電力" },
	{ "NameJa": "新宮", "NameEn": "Shingu", "Id": 1847947, "Longitude": 135.98, "Latitude": 33.73, "Area": "近畿", "PowerCompanyName": "関西電力" },
	{ "NameJa": "岡山", "NameEn": "Okayama-shi", "Id": 1854383, "Longitude": 133.93, "Latitude": 34.66, "Area": "中国", "PowerCompanyName": "中国電力" },
	{ "NameJa": "津山", "NameEn": "Tsuyama", "Id": 1849519, "Longitude": 134, "Latitude": 35.05, "Area": "中国", "PowerCompanyName": "中国電力" },
	{ "NameJa": "広島", "NameEn": "Hiroshima-shi", "Id": 1862415, "Longitude": 132.46, "Latitude": 34.4, "Area": "中国", "PowerCompanyName": "中国電力" },
	{ "NameJa": "庄原", "NameEn": "Shobara", "Id": 1851713, "Longitude": 133.02, "Latitude": 34.85, "Area": "中国", "PowerCompanyName": "中国電力" },
	{ "NameJa": "松江", "NameEn": "Matsue-shi", "Id": 1857550, "Longitude": 133.05, "Latitude": 35.47, "Area": "中国", "PowerCompanyName": "中国電力" },
	{ "NameJa": "浜田", "NameEn": "Hamada", "Id": 1863310, "Longitude": 132.08, "Latitude": 34.88, "Area": "中国", "PowerCompanyName": "中国電力" },
	{ "NameJa": "今津", "NameEn": "Imazu", "Id": 1861661, "Longitude": 133.32, "Latitude": 36.17, "Area": "中国", "PowerCompanyName": "中国電力" },
	{ "NameJa": "鳥取", "NameEn": "Tottori", "Id": 1849892, "Longitude": 134.23, "Latitude": 35.5, "Area": "中国", "PowerCompanyName": "中国電力" },
	{ "NameJa": "米子", "NameEn": "Yonago", "Id": 1848277, "Longitude": 133.33, "Latitude": 35.43, "Area": "中国", "PowerCompanyName": "中国電力" },
	{ "NameJa": "下関", "NameEn": "Shimonoseki", "Id": 1852225, "Longitude": 130.95, "Latitude": 33.95, "Area": "中国", "PowerCompanyName": "中国電力" },
	{ "NameJa": "山口", "NameEn": "Yamaguchi-shi", "Id": 1848689, "Longitude": 131.47, "Latitude": 34.19, "Area": "中国", "PowerCompanyName": "中国電力" },
	{ "NameJa": "柳井", "NameEn": "Yanai", "Id": 1848550, "Longitude": 132.12, "Latitude": 33.97, "Area": "中国", "PowerCompanyName": "中国電力" },
	{ "NameJa": "萩", "NameEn": "Hagi", "Id": 1863418, "Longitude": 131.42, "Latitude": 34.4, "Area": "中国", "PowerCompanyName": "中国電力" },
	{ "NameJa": "徳島", "NameEn": "Tokushima-shi", "Id": 1850158, "Longitude": 134.56, "Latitude": 34.07, "Area": "四国", "PowerCompanyName": "四国電力" },
	{ "NameJa": "牟岐", "NameEn": "Mugi", "Id": 1856488, "Longitude": 134.42, "Latitude": 33.67, "Area": "四国", "PowerCompanyName": "四国電力" },
	{ "NameJa": "高松", "NameEn": "Takamatsu-shi", "Id": 1851100, "Longitude": 134.04, "Latitude": 34.34, "Area": "四国", "PowerCompanyName": "四国電力" },
	{ "NameJa": "松山", "NameEn": "Matsuyama-shi", "Id": 1926099, "Longitude": 132.77, "Latitude": 33.84, "Area": "四国", "PowerCompanyName": "四国電力" },
	{ "NameJa": "新居浜", "NameEn": "Niihama", "Id": 1855425, "Longitude": 133.32, "Latitude": 33.96, "Area": "四国", "PowerCompanyName": "四国電力" },
	{ "NameJa": "宇和島", "NameEn": "Uwajima", "Id": 1926020, "Longitude": 132.56, "Latitude": 33.22, "Area": "四国", "PowerCompanyName": "四国電力" },
	{ "NameJa": "高知", "NameEn": "Kochi-shi", "Id": 1859146, "Longitude": 133.53, "Latitude": 33.56, "Area": "四国", "PowerCompanyName": "四国電力" },
	{ "NameJa": "室戸", "NameEn": "Muroto", "Id": 1856392, "Longitude": 134.15, "Latitude": 33.28, "Area": "四国", "PowerCompanyName": "四国電力" },
	{ "NameJa": "宿毛", "NameEn": "Sukumo", "Id": 1851462, "Longitude": 132.73, "Latitude": 32.93, "Area": "四国", "PowerCompanyName": "四国電力" },
	{ "NameJa": "福岡", "NameEn": "Fukuoka-shi", "Id": 1863967, "Longitude": 130.42, "Latitude": 33.61, "Area": "九州", "PowerCompanyName": "九州電力" },
	{ "NameJa": "北九州", "NameEn": "Kitakyushu", "Id": 1859307, "Longitude": 130.83, "Latitude": 33.83, "Area": "九州", "PowerCompanyName": "九州電力" },
	{ "NameJa": "飯塚", "NameEn": "Iizuka", "Id": 1861835, "Longitude": 130.68, "Latitude": 33.63, "Area": "九州", "PowerCompanyName": "九州電力" },
	{ "NameJa": "久留米", "NameEn": "Kurume", "Id": 1858088, "Longitude": 130.52, "Latitude": 33.32, "Area": "九州", "PowerCompanyName": "九州電力" },
	{ "NameJa": "大分", "NameEn": "Oita-shi", "Id": 1854487, "Longitude": 131.61, "Latitude": 33.24, "Area": "九州", "PowerCompanyName": "九州電力" },
	{ "NameJa": "中津", "NameEn": "Nakatsu", "Id": 1855757, "Longitude": 131.19, "Latitude": 33.6, "Area": "九州", "PowerCompanyName": "九州電力" },
	{ "NameJa": "日田", "NameEn": "Hita", "Id": 1862373, "Longitude": 130.93, "Latitude": 33.32, "Area": "九州", "PowerCompanyName": "九州電力" },
	{ "NameJa": "佐伯", "NameEn": "Saiki", "Id": 1853237, "Longitude": 131.9, "Latitude": 32.95, "Area": "九州", "PowerCompanyName": "九州電力" },
	{ "NameJa": "長崎", "NameEn": "Nagasaki-shi", "Id": 1856177, "Longitude": 129.87, "Latitude": 32.74, "Area": "九州", "PowerCompanyName": "九州電力" },
	{ "NameJa": "佐世保", "NameEn": "Sasebo", "Id": 1852899, "Longitude": 129.72, "Latitude": 33.16, "Area": "九州", "PowerCompanyName": "九州電力" },
	{ "NameJa": "厳原", "NameEn": "Izuhara", "Id": 1861116, "Longitude": 129.29, "Latitude": 34.2, "Area": "九州", "PowerCompanyName": "九州電力" },
	{ "NameJa": "福江", "NameEn": "Fukue", "Id": 1863997, "Longitude": 128.84, "Latitude": 32.69, "Area": "九州", "PowerCompanyName": "九州電力" },
	{ "NameJa": "佐賀", "NameEn": "Saga-shi", "Id": 1853303, "Longitude": 130.3, "Latitude": 33.25, "Area": "九州", "PowerCompanyName": "九州電力" },
	{ "NameJa": "伊万里", "NameEn": "Imari", "Id": 1861677, "Longitude": 129.88, "Latitude": 33.27, "Area": "九州", "PowerCompanyName": "九州電力" },
	{ "NameJa": "熊本", "NameEn": "Kumamoto-shi", "Id": 1858421, "Longitude": 130.74, "Latitude": 32.79, "Area": "九州", "PowerCompanyName": "九州電力" },
	{ "NameJa": "牛深", "NameEn": "Ushibuka", "Id": 1849154, "Longitude": 130.02, "Latitude": 32.19, "Area": "九州", "PowerCompanyName": "九州電力" },
	{ "NameJa": "人吉", "NameEn": "Hitoyoshi", "Id": 1862352, "Longitude": 130.75, "Latitude": 32.22, "Area": "九州", "PowerCompanyName": "九州電力" },
	{ "NameJa": "宮崎", "NameEn": "Miyazaki-shi", "Id": 1856717, "Longitude": 131.42, "Latitude": 31.91, "Area": "九州", "PowerCompanyName": "九州電力" },
	{ "NameJa": "延岡", "NameEn": "Nobeoka", "Id": 1855095, "Longitude": 131.67, "Latitude": 32.58, "Area": "九州", "PowerCompanyName": "九州電力" },
	{ "NameJa": "都城", "NameEn": "Miyakonojo", "Id": 1856775, "Longitude": 131.07, "Latitude": 31.73, "Area": "九州", "PowerCompanyName": "九州電力" },
	{ "NameJa": "竹田", "NameEn": "Takedamachi", "Id": 1850878, "Longitude": 131.4, "Latitude": 32.97, "Area": "九州", "PowerCompanyName": "九州電力" },
	{ "NameJa": "鹿児島", "NameEn": "Kagoshima-shi", "Id": 1860827, "Longitude": 130.56, "Latitude": 31.56, "Area": "九州", "PowerCompanyName": "九州電力" },
	{ "NameJa": "鹿屋", "NameEn": "Kanoya", "Id": 1860112, "Longitude": 130.85, "Latitude": 31.38, "Area": "九州", "PowerCompanyName": "九州電力" },
	{ "NameJa": "西之表", "NameEn": "Nishinoomote", "Id": 1855203, "Longitude": 131, "Latitude": 30.73, "Area": "九州", "PowerCompanyName": "九州電力" },
	{ "NameJa": "名瀬", "NameEn": "Naze", "Id": 1855540, "Longitude": 129.48, "Latitude": 28.37, "Area": "九州", "PowerCompanyName": "九州電力" },
	{ "NameJa": "那覇", "NameEn": "Naha-shi", "Id": 1856035, "Longitude": 127.68, "Latitude": 26.21, "Area": "沖縄", "PowerCompanyName": "沖縄電力" },
	{ "NameJa": "名護", "NameEn": "Nago", "Id": 1856068, "Longitude": 127.98, "Latitude": 26.59, "Area": "沖縄", "PowerCompanyName": "沖縄電力" },
	{ "NameJa": "宮古島", "NameEn": "Hirara", "Id": 1862505, "Longitude": 125.28, "Latitude": 24.8, "Area": "沖縄", "PowerCompanyName": "沖縄電力" },
	{ "NameJa": "石垣島", "NameEn": "Ishigaki", "Id": 1861416, "Longitude": 124.16, "Latitude": 24.34, "Area": "沖縄", "PowerCompanyName": "沖縄電力" }
]